start=new Date('2022-06-12T00:00:00.000Z').valueOf();
sats=[{"BSTAR":"0.00027707000000","SEMIMAJOR_AXIS":"6727.865","REV_AT_EPOCH":"130","REF_FRAME":"TEME","TIME_SYSTEM":"UTC","ELEMENT_SET_NO":"999","DECAY_DATE":null,"APOAPSIS":"351.231","MEAN_MOTION_DDOT":"0.0000000000000","EPHEMERIS_TYPE":"0","MEAN_ELEMENT_THEORY":"SGP4","MEAN_MOTION":"15.73210733","SITE":"AFETR","CLASSIFICATION_TYPE":"U","LAUNCH_DATE":"2022-05-18","OBJECT_NAME":"STARLINK-3970","FILE":"3492149","PERIAPSIS":"348.229","ARG_OF_PERICENTER":"28.9061","OBJECT_ID":"2022-053BC","EPOCH":"2022-06-11T22:00:00.999936","PERIOD":"91.533","ECCENTRICITY":"0.00022310","TLE_LINE2":"2 52706  53.2159 176.6265 0002231  28.9061 320.7658 15.73210733  1301","MEAN_ANOMALY":"320.7658","NORAD_CAT_ID":"52706","TLE_LINE1":"1 52706U 22053BC  22162.91667824  .00038463  00000-0  27707-3 0  9998","OBJECT_TYPE":"PAYLOAD","CENTER_NAME":"EARTH","COUNTRY_CODE":"US","MEAN_MOTION_DOT":"0.00038463","INCLINATION":"53.2159","RCS_SIZE":"LARGE","RA_OF_ASC_NODE":"176.6265","GP_ID":"205930033"},{"REF_FRAME":"TEME","TIME_SYSTEM":"UTC","ELEMENT_SET_NO":"999","MEAN_MOTION_DDOT":"0.0000000000000","DECAY_DATE":null,"APOAPSIS":"351.599","MEAN_MOTION":"15.73179103","EPHEMERIS_TYPE":"0","MEAN_ELEMENT_THEORY":"SGP4","FILE":"3492149","PERIAPSIS":"348.041","SITE":"AFETR","LAUNCH_DATE":"2022-05-18","OBJECT_NAME":"STARLINK-4007","CLASSIFICATION_TYPE":"U","BSTAR":"0.00037955000000","SEMIMAJOR_AXIS":"6727.955","REV_AT_EPOCH":"130","OBJECT_TYPE":"PAYLOAD","CENTER_NAME":"EARTH","COUNTRY_CODE":"US","INCLINATION":"53.2158","MEAN_MOTION_DOT":"0.00052941","RCS_SIZE":"LARGE","GP_ID":"205930481","RA_OF_ASC_NODE":"176.6222","PERIOD":"91.534","EPOCH":"2022-06-11T22:00:00.999936","ARG_OF_PERICENTER":"15.8690","OBJECT_ID":"2022-053BD","NORAD_CAT_ID":"52707","MEAN_ANOMALY":"335.6487","ECCENTRICITY":"0.00026440","TLE_LINE2":"2 52707  53.2158 176.6222 0002644  15.8690 335.6487 15.73179103  1305","TLE_LINE1":"1 52707U 22053BD  22162.91667824  .00052941  00000-0  37955-3 0  9992"},{"TLE_LINE1":"1 52708U 22053BE  22162.91667824  .00058241  00000-0  41707-3 0  9992","NORAD_CAT_ID":"52708","MEAN_ANOMALY":"331.6163","TLE_LINE2":"2 52708  53.2161 176.6220 0002292  20.5340 331.6163 15.73167190  1302","ECCENTRICITY":"0.00022920","PERIOD":"91.535","EPOCH":"2022-06-11T22:00:00.999936","OBJECT_ID":"2022-053BE","ARG_OF_PERICENTER":"20.5340","GP_ID":"205930273","RA_OF_ASC_NODE":"176.6220","RCS_SIZE":"LARGE","INCLINATION":"53.2161","MEAN_MOTION_DOT":"0.00058241","COUNTRY_CODE":"US","OBJECT_TYPE":"PAYLOAD","CENTER_NAME":"EARTH","REV_AT_EPOCH":"130","SEMIMAJOR_AXIS":"6727.989","BSTAR":"0.00041707000000","FILE":"3492149","PERIAPSIS":"348.312","SITE":"AFETR","LAUNCH_DATE":"2022-05-18","OBJECT_NAME":"STARLINK-3962","CLASSIFICATION_TYPE":"U","MEAN_MOTION":"15.73167190","EPHEMERIS_TYPE":"0","MEAN_ELEMENT_THEORY":"SGP4","MEAN_MOTION_DDOT":"0.0000000000000","DECAY_DATE":null,"APOAPSIS":"351.396","ELEMENT_SET_NO":"999","TIME_SYSTEM":"UTC","REF_FRAME":"TEME"}];
